CCSDS_OMM_VERS = 2.0
CREATION_DATE  = 
ORIGINATOR     = 

OBJECT_NAME    = IDEFIX & ARIANE 42P R/B
OBJECT_ID      = 2002-021B
CENTER_NAME    = EARTH
REF_FRAME      = TEME
TIME_SYSTEM    = UTC
MEAN_ELEMENT_THEORY = SGP/SGP4

EPOCH          = 2025-12-09T10:28:49.209888
MEAN_MOTION    = 14.30946922
ECCENTRICITY   = .0012935
INCLINATION    = 98.5781
RA_OF_ASC_NODE = 278.1705
ARG_OF_PERICENTER = 92.4869
MEAN_ANOMALY   = 267.7795

EPHEMERIS_TYPE = 0
CLASSIFICATION_TYPE = U
NORAD_CAT_ID   = 27422
ELEMENT_SET_NO = 999
REV_AT_EPOCH   = 23111
BSTAR          = .25023E-3
MEAN_MOTION_DOT = .615E-5
MEAN_MOTION_DDOT = 0

CCSDS_OMM_VERS = 2.0
CREATION_DATE  = 
ORIGINATOR     = 

OBJECT_NAME    = AQUA
OBJECT_ID      = 2002-022A
CENTER_NAME    = EARTH
REF_FRAME      = TEME
TIME_SYSTEM    = UTC
MEAN_ELEMENT_THEORY = SGP/SGP4

EPOCH          = 2025-12-09T11:33:29.831328
MEAN_MOTION    = 14.61797742
ECCENTRICITY   = .0000967
INCLINATION    = 98.4034
RA_OF_ASC_NODE = 304.3078
ARG_OF_PERICENTER = 114.1895
MEAN_ANOMALY   = 355.6485

EPHEMERIS_TYPE = 0
CLASSIFICATION_TYPE = U
NORAD_CAT_ID   = 27424
ELEMENT_SET_NO = 999
REV_AT_EPOCH   = 25555
BSTAR          = .40337E-3
MEAN_MOTION_DOT = .1964E-4
MEAN_MOTION_DDOT = 0

CCSDS_OMM_VERS = 2.0
CREATION_DATE  = 
ORIGINATOR     = 

OBJECT_NAME    = CZ-4B R/B
OBJECT_ID      = 2002-024C
CENTER_NAME    = EARTH
REF_FRAME      = TEME
TIME_SYSTEM    = UTC
MEAN_ELEMENT_THEORY = SGP/SGP4

EPOCH          = 2025-12-09T09:09:44.916768
MEAN_MOTION    = 14.14526982
ECCENTRICITY   = .0049165
INCLINATION    = 98.9001
RA_OF_ASC_NODE = 32.1650
ARG_OF_PERICENTER = 279.6367
MEAN_ANOMALY   = 90.4859

EPHEMERIS_TYPE = 0
CLASSIFICATION_TYPE = U
NORAD_CAT_ID   = 27432
ELEMENT_SET_NO = 999
REV_AT_EPOCH   = 21647
BSTAR          = .94924E-4
MEAN_MOTION_DOT = .139E-5
MEAN_MOTION_DDOT = 0

CCSDS_OMM_VERS = 2.0
CREATION_DATE  = 
ORIGINATOR     = 

OBJECT_NAME    = MIDORI II (ADEOS-II)
OBJECT_ID      = 2002-056A
CENTER_NAME    = EARTH
REF_FRAME      = TEME
TIME_SYSTEM    = UTC
MEAN_ELEMENT_THEORY = SGP/SGP4

EPOCH          = 2025-12-09T11:52:48.806976
MEAN_MOTION    = 14.29202654
ECCENTRICITY   = .0000043
INCLINATION    = 98.7631
RA_OF_ASC_NODE = 296.4343
ARG_OF_PERICENTER = 63.7448
MEAN_ANOMALY   = 296.3738

EPHEMERIS_TYPE = 0
CLASSIFICATION_TYPE = U
NORAD_CAT_ID   = 27597
ELEMENT_SET_NO = 999
REV_AT_EPOCH   = 19741
BSTAR          = .2322E-3
MEAN_MOTION_DOT = .545E-5
MEAN_MOTION_DDOT = 0

CCSDS_OMM_VERS = 2.0
CREATION_DATE  = 
ORIGINATOR     = 

OBJECT_NAME    = H-2A R/B
OBJECT_ID      = 2002-056E
CENTER_NAME    = EARTH
REF_FRAME      = TEME
TIME_SYSTEM    = UTC
MEAN_ELEMENT_THEORY = SGP/SGP4

EPOCH          = 2025-12-09T11:31:01.897248
MEAN_MOTION    = 14.33672313
ECCENTRICITY   = .0071452
INCLINATION    = 98.3060
RA_OF_ASC_NODE = 302.3664
ARG_OF_PERICENTER = 70.7009
MEAN_ANOMALY   = 40.0107

EPHEMERIS_TYPE = 0
CLASSIFICATION_TYPE = U
NORAD_CAT_ID   = 27601
ELEMENT_SET_NO = 999
REV_AT_EPOCH   = 20118
BSTAR          = .24512E-3
MEAN_MOTION_DOT = .658E-5
MEAN_MOTION_DDOT = 0

CCSDS_OMM_VERS = 2.0
CREATION_DATE  = 
ORIGINATOR     = 

OBJECT_NAME    = CZ-4B R/B
OBJECT_ID      = 2003-049C
CENTER_NAME    = EARTH
REF_FRAME      = TEME
TIME_SYSTEM    = UTC
MEAN_ELEMENT_THEORY = SGP/SGP4

EPOCH          = 2025-12-09T10:22:09.482016
MEAN_MOTION    = 14.54905026
ECCENTRICITY   = .0048839
INCLINATION    = 98.6786
RA_OF_ASC_NODE = 329.8711
ARG_OF_PERICENTER = 146.0149
MEAN_ANOMALY   = 214.4192

EPHEMERIS_TYPE = 0
CLASSIFICATION_TYPE = U
NORAD_CAT_ID   = 28059
ELEMENT_SET_NO = 999
REV_AT_EPOCH   = 17347
BSTAR          = .17889E-3
MEAN_MOTION_DOT = .73E-5
MEAN_MOTION_DDOT = 0

CCSDS_OMM_VERS = 2.0
CREATION_DATE  = 
ORIGINATOR     = 

OBJECT_NAME    = CZ-2C R/B
OBJECT_ID      = 2004-012C
CENTER_NAME    = EARTH
REF_FRAME      = TEME
TIME_SYSTEM    = UTC
MEAN_ELEMENT_THEORY = SGP/SGP4

EPOCH          = 2025-12-09T11:00:01.355328
MEAN_MOTION    = 15.55177115
ECCENTRICITY   = .0016655
INCLINATION    = 97.7424
RA_OF_ASC_NODE = 35.8086
ARG_OF_PERICENTER = 283.2987
MEAN_ANOMALY   = 76.6409

EPHEMERIS_TYPE = 0
CLASSIFICATION_TYPE = U
NORAD_CAT_ID   = 28222
ELEMENT_SET_NO = 999
REV_AT_EPOCH   = 19021
BSTAR          = .67109E-3
MEAN_MOTION_DOT = .45638E-3
MEAN_MOTION_DDOT = 0

CCSDS_OMM_VERS = 2.0
CREATION_DATE  = 
ORIGINATOR     = 

OBJECT_NAME    = SL-16 R/B
OBJECT_ID      = 2004-021B
CENTER_NAME    = EARTH
REF_FRAME      = TEME
TIME_SYSTEM    = UTC
MEAN_ELEMENT_THEORY = SGP/SGP4

EPOCH          = 2025-12-09T12:14:35.137824
MEAN_MOTION    = 14.14581661
ECCENTRICITY   = .0005473
INCLINATION    = 71.0021
RA_OF_ASC_NODE = 61.7427
ARG_OF_PERICENTER = 205.3188
MEAN_ANOMALY   = 154.7667

EPHEMERIS_TYPE = 0
CLASSIFICATION_TYPE = U
NORAD_CAT_ID   = 28353
ELEMENT_SET_NO = 999
REV_AT_EPOCH   = 11008
BSTAR          = -.64529E-4
MEAN_MOTION_DOT = -.172E-5
MEAN_MOTION_DDOT = 0

CCSDS_OMM_VERS = 2.0
CREATION_DATE  = 
ORIGINATOR     = 

OBJECT_NAME    = CZ-4B R/B
OBJECT_ID      = 2004-035C
CENTER_NAME    = EARTH
REF_FRAME      = TEME
TIME_SYSTEM    = UTC
MEAN_ELEMENT_THEORY = SGP/SGP4

EPOCH          = 2025-12-09T08:25:34.487040
MEAN_MOTION    = 15.27282823
ECCENTRICITY   = .0031723
INCLINATION    = 97.3611
RA_OF_ASC_NODE = 13.7402
ARG_OF_PERICENTER = 290.1836
MEAN_ANOMALY   = 69.5992

EPHEMERIS_TYPE = 0
CLASSIFICATION_TYPE = U
NORAD_CAT_ID   = 28415
ELEMENT_SET_NO = 999
REV_AT_EPOCH   = 16611
BSTAR          = .4156E-3
MEAN_MOTION_DOT = .11202E-3
MEAN_MOTION_DDOT = 0

CCSDS_OMM_VERS = 2.0
CREATION_DATE  = 
ORIGINATOR     = 

OBJECT_NAME    = CZ-2C R/B
OBJECT_ID      = 2004-046B
CENTER_NAME    = EARTH
REF_FRAME      = TEME
TIME_SYSTEM    = UTC
MEAN_ELEMENT_THEORY = SGP/SGP4

EPOCH          = 2025-12-09T09:11:18.341088
MEAN_MOTION    = 14.26938240
ECCENTRICITY   = .01406
INCLINATION    = 98.1988
RA_OF_ASC_NODE = 258.9694
ARG_OF_PERICENTER = 62.1577
MEAN_ANOMALY   = 299.3771

EPHEMERIS_TYPE = 0
CLASSIFICATION_TYPE = U
NORAD_CAT_ID   = 28480
ELEMENT_SET_NO = 999
REV_AT_EPOCH   = 9562
BSTAR          = .14469E-3
MEAN_MOTION_DOT = .35E-5
MEAN_MOTION_DDOT = 0

CCSDS_OMM_VERS = 2.0
CREATION_DATE  = 
ORIGINATOR     = 

OBJECT_NAME    = ARIANE 5 R/B
OBJECT_ID      = 2004-049H
CENTER_NAME    = EARTH
REF_FRAME      = TEME
TIME_SYSTEM    = UTC
MEAN_ELEMENT_THEORY = SGP/SGP4

EPOCH          = 2025-12-09T10:02:21.056064
MEAN_MOTION    = 14.85000547
ECCENTRICITY   = .0083394
INCLINATION    = 98.2521
RA_OF_ASC_NODE = 143.5805
ARG_OF_PERICENTER = 283.8975
MEAN_ANOMALY   = 75.2972

EPHEMERIS_TYPE = 0
CLASSIFICATION_TYPE = U
NORAD_CAT_ID   = 28499
ELEMENT_SET_NO = 999
REV_AT_EPOCH   = 13239
BSTAR          = .22108E-3
MEAN_MOTION_DOT = .1941E-4
MEAN_MOTION_DDOT = 0

CCSDS_OMM_VERS = 2.0
CREATION_DATE  = 
ORIGINATOR     = 

OBJECT_NAME    = CZ-2D R/B
OBJECT_ID      = 2005-024B
CENTER_NAME    = EARTH
REF_FRAME      = TEME
TIME_SYSTEM    = UTC
MEAN_ELEMENT_THEORY = SGP/SGP4

EPOCH          = 2025-12-09T12:00:31.891104
MEAN_MOTION    = 15.52920928
ECCENTRICITY   = .0005989
INCLINATION    = 97.3635
RA_OF_ASC_NODE = 350.8622
ARG_OF_PERICENTER = 17.9337
MEAN_ANOMALY   = 342.2126

EPHEMERIS_TYPE = 0
CLASSIFICATION_TYPE = U
NORAD_CAT_ID   = 28738
ELEMENT_SET_NO = 999
REV_AT_EPOCH   = 12575
BSTAR          = .60052E-3
MEAN_MOTION_DOT = .37385E-3
MEAN_MOTION_DDOT = 0

