IDEFIX & ARIANE 42P R/B 
1 27422U 02021B   25343.43668067  .00000615  00000+0  25023-3 0  9995
2 27422  98.5781 278.1705 0012935  92.4869 267.7795 14.30946922231116
AQUA                    
1 27424U 02022A   25343.48159527  .00001964  00000+0  40337-3 0  9992
2 27424  98.4034 304.3078 0000967 114.1895 355.6485 14.61797742255551
CZ-4B R/B               
1 27432U 02024C   25343.38176987  .00000139  00000+0  94924-4 0  9996
2 27432  98.9001  32.1650 0049165 279.6367  90.4859 14.14526982216476
MIDORI II (ADEOS-II)    
1 27597U 02056A   25343.49500934  .00000545  00000+0  23220-3 0  9999
2 27597  98.7631 296.4343 0000043  63.7448 296.3738 14.29202654197411
H-2A R/B                
1 27601U 02056E   25343.47988307  .00000658  00000+0  24512-3 0  9997
2 27601  98.3060 302.3664 0071452  70.7009  40.0107 14.33672313201187
CZ-4B R/B               
1 28059U 03049C   25343.43205419  .00000730  00000+0  17889-3 0  9990
2 28059  98.6786 329.8711 0048839 146.0149 214.4192 14.54905026173479
CZ-2C R/B               
1 28222U 04012C   25343.45834902  .00045638  00000+0  67109-3 0  9996
2 28222  97.7424  35.8086 0016655 283.2987  76.6409 15.55177115190216
SL-16 R/B               
1 28353U 04021B   25343.51012891 -.00000172  00000+0 -64529-4 0  9993
2 28353  71.0021  61.7427 0005473 205.3188 154.7667 14.14581661110080
CZ-4B R/B               
1 28415U 04035C   25343.35109360  .00011202  00000+0  41560-3 0  9990
2 28415  97.3611  13.7402 0031723 290.1836  69.5992 15.27282823166116
CZ-2C R/B               
1 28480U 04046B   25343.38285117  .00000350  00000+0  14469-3 0  9992
2 28480  98.1988 258.9694 0140600  62.1577 299.3771 14.26938240 95628
ARIANE 5 R/B            
1 28499U 04049H   25343.41829926  .00001941  00000+0  22108-3 0  9997
2 28499  98.2521 143.5805 0083394 283.8975  75.2972 14.85000547132390
CZ-2D R/B               
1 28738U 05024B   25343.50036911  .00037385  00000+0  60052-3 0  9992
2 28738  97.3635 350.8622 0005989  17.9337 342.2126 15.52920928125753
